start=new Date('2022-01-28T00:00:00.000Z').valueOf();
sats=[{"MEAN_MOTION":"15.06396876","PERIAPSIS":"546.255","MEAN_ELEMENT_THEORY":"SGP4","MEAN_MOTION_DOT":"0.00000952","DECAY_DATE":null,"RA_OF_ASC_NODE":"109.5308","MEAN_MOTION_DDOT":"0.0000000000000","EPOCH":"2022-01-27T15:35:30.719040","GP_ID":"194749325","SEMIMAJOR_AXIS":"6925.358","OBJECT_NAME":"STARLINK-1060","APOAPSIS":"548.191","REV_AT_EPOCH":"12224","RCS_SIZE":"LARGE","BSTAR":"0.00008283600000","INCLINATION":"53.0546","OBJECT_TYPE":"PAYLOAD","MEAN_ANOMALY":"290.9851","NORAD_CAT_ID":"44765","REF_FRAME":"TEME","OBJECT_ID":"2019-074BE","TIME_SYSTEM":"UTC","ECCENTRICITY":"0.00013980","LAUNCH_DATE":"2019-11-11","CLASSIFICATION_TYPE":"U","CENTER_NAME":"EARTH","TLE_LINE2":"2 44765  53.0546 109.5308 0001398  69.1287 290.9851 15.06396876122247","FILE":"3285132","EPHEMERIS_TYPE":"0","TLE_LINE1":"1 44765U 19074BE  22027.64966110  .00000952  00000-0  82836-4 0  9990","PERIOD":"95.592","ELEMENT_SET_NO":"999","COUNTRY_CODE":"US","ARG_OF_PERICENTER":"69.1287","SITE":"AFETR"},{"EPOCH":"2022-01-27T15:32:51.454464","DECAY_DATE":null,"MEAN_MOTION_DDOT":"0.0000000000000","RA_OF_ASC_NODE":"129.5360","MEAN_MOTION_DOT":"-0.00001455","PERIAPSIS":"546.239","MEAN_MOTION":"15.06393790","MEAN_ELEMENT_THEORY":"SGP4","BSTAR":"-0.00007880300000","INCLINATION":"53.0549","RCS_SIZE":"LARGE","REV_AT_EPOCH":"12197","GP_ID":"194749324","APOAPSIS":"548.226","OBJECT_NAME":"STARLINK-1061","SEMIMAJOR_AXIS":"6925.368","CENTER_NAME":"EARTH","TLE_LINE2":"2 44766  53.0549 129.5360 0001435  80.1344 279.9807 15.06393790121979","LAUNCH_DATE":"2019-11-11","CLASSIFICATION_TYPE":"U","ECCENTRICITY":"0.00014350","REF_FRAME":"TEME","TIME_SYSTEM":"UTC","OBJECT_ID":"2019-074BF","OBJECT_TYPE":"PAYLOAD","NORAD_CAT_ID":"44766","MEAN_ANOMALY":"279.9807","ELEMENT_SET_NO":"999","SITE":"AFETR","COUNTRY_CODE":"US","ARG_OF_PERICENTER":"80.1344","TLE_LINE1":"1 44766U 19074BF  22027.64781776 -.00001455  00000-0 -78803-4 0  9994","PERIOD":"95.593","EPHEMERIS_TYPE":"0","FILE":"3285132"},{"APOAPSIS":"548.250","OBJECT_NAME":"STARLINK-1062","SEMIMAJOR_AXIS":"6925.368","GP_ID":"194749803","RCS_SIZE":"LARGE","REV_AT_EPOCH":"12196","INCLINATION":"53.0540","BSTAR":"0.00011297000000","MEAN_ELEMENT_THEORY":"SGP4","PERIAPSIS":"546.215","MEAN_MOTION":"15.06393715","MEAN_MOTION_DOT":"0.00001401","MEAN_MOTION_DDOT":"0.0000000000000","RA_OF_ASC_NODE":"129.8697","DECAY_DATE":null,"EPOCH":"2022-01-27T13:46:42.386880","EPHEMERIS_TYPE":"0","FILE":"3285132","TLE_LINE1":"1 44767U 19074BG  22027.57410170  .00001401  00000-0  11297-3 0  9996","PERIOD":"95.593","SITE":"AFETR","ARG_OF_PERICENTER":"66.4305","COUNTRY_CODE":"US","ELEMENT_SET_NO":"999","NORAD_CAT_ID":"44767","MEAN_ANOMALY":"293.6838","OBJECT_TYPE":"PAYLOAD","TIME_SYSTEM":"UTC","OBJECT_ID":"2019-074BG","REF_FRAME":"TEME","LAUNCH_DATE":"2019-11-11","ECCENTRICITY":"0.00014690","CLASSIFICATION_TYPE":"U","TLE_LINE2":"2 44767  53.0540 129.8697 0001469  66.4305 293.6838 15.06393715121961","CENTER_NAME":"EARTH"},{"EPOCH":"2022-01-27T12:43:00.654816","MEAN_MOTION_DDOT":"0.0000000000000","RA_OF_ASC_NODE":"130.0710","DECAY_DATE":null,"MEAN_MOTION_DOT":"0.00005399","MEAN_ELEMENT_THEORY":"SGP4","MEAN_MOTION":"15.06406844","PERIAPSIS":"546.249","INCLINATION":"53.0524","BSTAR":"0.00038098000000","REV_AT_EPOCH":"12179","RCS_SIZE":"LARGE","SEMIMAJOR_AXIS":"6925.328","APOAPSIS":"548.137","OBJECT_NAME":"STARLINK-1063","GP_ID":"194739969","TLE_LINE2":"2 44768  53.0524 130.0710 0001363  68.0382 292.0751 15.06406844121796","CENTER_NAME":"EARTH","LAUNCH_DATE":"2019-11-11","CLASSIFICATION_TYPE":"U","ECCENTRICITY":"0.00013630","OBJECT_ID":"2019-074BH","TIME_SYSTEM":"UTC","REF_FRAME":"TEME","MEAN_ANOMALY":"292.0751","NORAD_CAT_ID":"44768","OBJECT_TYPE":"PAYLOAD","COUNTRY_CODE":"US","ARG_OF_PERICENTER":"68.0382","SITE":"AFETR","ELEMENT_SET_NO":"999","TLE_LINE1":"1 44768U 19074BH  22027.52986869  .00005399  00000-0  38098-3 0  9993","PERIOD":"95.592","EPHEMERIS_TYPE":"0","FILE":"3284946"},{"TLE_LINE2":"2 44769  53.0538  71.0680 0003991   0.5867 359.5159 15.83784191122757","CENTER_NAME":"EARTH","ECCENTRICITY":"0.00039910","LAUNCH_DATE":"2019-11-11","CLASSIFICATION_TYPE":"U","TIME_SYSTEM":"UTC","OBJECT_ID":"2019-074BJ","REF_FRAME":"TEME","NORAD_CAT_ID":"44769","MEAN_ANOMALY":"359.5159","OBJECT_TYPE":"PAYLOAD","SITE":"AFETR","ARG_OF_PERICENTER":"0.5867","COUNTRY_CODE":"US","ELEMENT_SET_NO":"999","TLE_LINE1":"1 44769U 19074BJ  22027.40885720 -.00030366  00000-0 -13134-3 0  9993","PERIOD":"90.921","FILE":"3285182","EPHEMERIS_TYPE":"0","EPOCH":"2022-01-27T09:48:45.262080","MEAN_MOTION_DDOT":"0.0000000000000","RA_OF_ASC_NODE":"71.0680","DECAY_DATE":null,"MEAN_MOTION_DOT":"-0.00030366","MEAN_ELEMENT_THEORY":"SGP4","PERIAPSIS":"317.079","MEAN_MOTION":"15.83784191","INCLINATION":"53.0538","BSTAR":"-0.00013134000000","RCS_SIZE":"LARGE","REV_AT_EPOCH":"12275","APOAPSIS":"322.425","OBJECT_NAME":"STARLINK-1064","SEMIMAJOR_AXIS":"6697.887","GP_ID":"194749348"},{"SITE":"AFETR","ARG_OF_PERICENTER":"61.5628","COUNTRY_CODE":"US","ELEMENT_SET_NO":"999","PERIOD":"95.348","TLE_LINE1":"1 44770U 19074BK  22027.67198867  .00009097  00000-0  56669-3 0  9998","EPHEMERIS_TYPE":"0","FILE":"3285182","TLE_LINE2":"2 44770  53.0022 121.2235 0001448  61.5628 298.5507 15.10254417122064","CENTER_NAME":"EARTH","CLASSIFICATION_TYPE":"U","LAUNCH_DATE":"2019-11-11","ECCENTRICITY":"0.00014480","TIME_SYSTEM":"UTC","OBJECT_ID":"2019-074BK","REF_FRAME":"TEME","NORAD_CAT_ID":"44770","MEAN_ANOMALY":"298.5507","OBJECT_TYPE":"PAYLOAD","INCLINATION":"53.0022","BSTAR":"0.00056669000000","RCS_SIZE":"LARGE","REV_AT_EPOCH":"12206","OBJECT_NAME":"STARLINK-1065","APOAPSIS":"536.427","SEMIMAJOR_AXIS":"6913.560","GP_ID":"194749347","EPOCH":"2022-01-27T16:07:39.821088","RA_OF_ASC_NODE":"121.2235","MEAN_MOTION_DDOT":"0.0000000000000","DECAY_DATE":null,"MEAN_MOTION_DOT":"0.00009097","MEAN_ELEMENT_THEORY":"SGP4","PERIAPSIS":"534.424","MEAN_MOTION":"15.10254417"},{"REF_FRAME":"TEME","TIME_SYSTEM":"UTC","OBJECT_ID":"2019-074BL","OBJECT_TYPE":"PAYLOAD","NORAD_CAT_ID":"44771","MEAN_ANOMALY":"297.2012","CENTER_NAME":"EARTH","TLE_LINE2":"2 44771  53.0543 129.8258 0001250  62.9104 297.2012 15.06395746121968","LAUNCH_DATE":"2019-11-11","CLASSIFICATION_TYPE":"U","ECCENTRICITY":"0.00012500","FILE":"3285182","EPHEMERIS_TYPE":"0","ELEMENT_SET_NO":"999","SITE":"AFETR","ARG_OF_PERICENTER":"62.9104","COUNTRY_CODE":"US","TLE_LINE1":"1 44771U 19074BL  22027.58515463  .00001175  00000-0  97765-4 0  9996","PERIOD":"95.592","MEAN_MOTION_DOT":"0.00001175","PERIAPSIS":"546.361","MEAN_MOTION":"15.06395746","MEAN_ELEMENT_THEORY":"SGP4","EPOCH":"2022-01-27T14:02:37.360032","DECAY_DATE":null,"RA_OF_ASC_NODE":"129.8258","MEAN_MOTION_DDOT":"0.0000000000000","GP_ID":"194749830","OBJECT_NAME":"STARLINK-1067","APOAPSIS":"548.092","SEMIMAJOR_AXIS":"6925.362","BSTAR":"0.00009776500000","INCLINATION":"53.0543","RCS_SIZE":"LARGE","REV_AT_EPOCH":"12196"},{"CLASSIFICATION_TYPE":"U","LAUNCH_DATE":"2019-11-11","ECCENTRICITY":"0.00012070","CENTER_NAME":"EARTH","TLE_LINE2":"2 44772  53.0552 109.5770 0001207  72.8176 287.2945 15.06393665122248","OBJECT_TYPE":"PAYLOAD","NORAD_CAT_ID":"44772","MEAN_ANOMALY":"287.2945","REF_FRAME":"TEME","TIME_SYSTEM":"UTC","OBJECT_ID":"2019-074BM","TLE_LINE1":"1 44772U 19074BM  22027.64229138  .00000292  00000-0  38474-4 0  9996","PERIOD":"95.593","ELEMENT_SET_NO":"999","SITE":"AFETR","ARG_OF_PERICENTER":"72.8176","COUNTRY_CODE":"US","FILE":"3285182","EPHEMERIS_TYPE":"0","DECAY_DATE":null,"RA_OF_ASC_NODE":"109.5770","MEAN_MOTION_DDOT":"0.0000000000000","EPOCH":"2022-01-27T15:24:53.975232","PERIAPSIS":"546.397","MEAN_MOTION":"15.06393665","MEAN_ELEMENT_THEORY":"SGP4","MEAN_MOTION_DOT":"0.00000292","RCS_SIZE":"LARGE","REV_AT_EPOCH":"12224","BSTAR":"0.00003847400000","INCLINATION":"53.0552","GP_ID":"194749350","OBJECT_NAME":"STARLINK-1068","APOAPSIS":"548.069","SEMIMAJOR_AXIS":"6925.368"},{"CLASSIFICATION_TYPE":"U","LAUNCH_DATE":"2020-01-07","ECCENTRICITY":"0.00018050","TLE_LINE2":"2 44914  53.0530 250.9863 0001805  73.4749 286.6438 15.06395823113409","CENTER_NAME":"EARTH","MEAN_ANOMALY":"286.6438","NORAD_CAT_ID":"44914","OBJECT_TYPE":"PAYLOAD","OBJECT_ID":"2020-001A","TIME_SYSTEM":"UTC","REF_FRAME":"TEME","TLE_LINE1":"1 44914U 20001A   22027.32715252  .00000021  00000-0  20348-4 0  9999","PERIOD":"95.592","COUNTRY_CODE":"US","ARG_OF_PERICENTER":"73.4749","SITE":"AFETR","ELEMENT_SET_NO":"999","EPHEMERIS_TYPE":"0","FILE":"3284946","RA_OF_ASC_NODE":"250.9863","MEAN_MOTION_DDOT":"0.0000000000000","DECAY_DATE":null,"EPOCH":"2022-01-27T07:51:05.977728","MEAN_ELEMENT_THEORY":"SGP4","MEAN_MOTION":"15.06395823","PERIAPSIS":"545.976","MEAN_MOTION_DOT":"0.00000021","REV_AT_EPOCH":"11340","RCS_SIZE":"LARGE","INCLINATION":"53.0530","BSTAR":"0.00002034800000","SEMIMAJOR_AXIS":"6925.361","OBJECT_NAME":"STARLINK-1073","APOAPSIS":"548.476","GP_ID":"194740726"},{"COUNTRY_CODE":"US","ARG_OF_PERICENTER":"76.6925","SITE":"AFETR","ELEMENT_SET_NO":"999","TLE_LINE1":"1 44915U 20001B   22027.55567776 -.00000176  00000-0  71283-5 0  9998","PERIOD":"95.592","EPHEMERIS_TYPE":"0","FILE":"3284946","TLE_LINE2":"2 44915  53.0524 249.9568 0001900  76.6925 283.4275 15.06405985113449","CENTER_NAME":"EARTH","LAUNCH_DATE":"2020-01-07","CLASSIFICATION_TYPE":"U","ECCENTRICITY":"0.00019000","OBJECT_ID":"2020-001B","TIME_SYSTEM":"UTC","REF_FRAME":"TEME","MEAN_ANOMALY":"283.4275","NORAD_CAT_ID":"44915","OBJECT_TYPE":"PAYLOAD","INCLINATION":"53.0524","BSTAR":"0.00000712830000","REV_AT_EPOCH":"11344","RCS_SIZE":"LARGE","SEMIMAJOR_AXIS":"6925.330","OBJECT_NAME":"STARLINK-1084","APOAPSIS":"548.511","GP_ID":"194739482","EPOCH":"2022-01-27T13:20:10.558464","RA_OF_ASC_NODE":"249.9568","MEAN_MOTION_DDOT":"0.0000000000000","DECAY_DATE":null,"MEAN_MOTION_DOT":"-0.00000176","MEAN_ELEMENT_THEORY":"SGP4","MEAN_MOTION":"15.06405985","PERIAPSIS":"545.879"}];
